DIAMOND GREEN           
1 42785U 17036W   24083.06082284  .00592729  15172-3  13669-2 0  9990
2 42785  97.0916 123.0259 0005587 178.2740 181.8558 15.97225317376358
DIAMOND BLUE            
1 42786U 17036X   24082.83854371  .00367632  00000+0  14652-2 0  9995
2 42786  97.1014 121.9160 0005588 154.2708 205.8842 15.85691070376258
CICERO 6                
1 42793U 17036AE  24083.06415394  .00102420  00000+0  10218-2 0  9993
2 42793  97.1059 119.5023 0006155 141.2962 218.8741 15.65299027376228
CORVUS BC2              
1 42846U 17042X   24083.04514205  .00005045  00000+0  44522-3 0  9999
2 42846  97.3740 272.9949 0008319 356.1874   3.9284 14.96779382364558
CORVUS BC1              
1 42847U 17042Y   24083.08172330  .00006171  00000+0  54132-3 0  9992
2 42847  97.3751 273.4193 0007972   0.5036 359.6194 14.96935175364579
MIRATA                  
1 43015U 17073C   24082.66855687  .00024157  00000+0  12467-2 0  9998
2 43015  97.6100 328.6559 0181815 194.8172 164.7685 15.03051280343318
MAKERSAT 0              
1 43016U 17073D   24082.92058307  .00013922  00000+0  83436-3 0  9995
2 43016  97.5947 324.4235 0203660 212.0257 146.8457 14.95301569343015
CORVUS BC3              
1 43118U 18004H   24082.76465192  .00106061  00000+0  10810-2 0  9991
2 43118  97.2944 165.4947 0005474 192.3655 167.7471 15.64749896345308
GOMX-4B                 
1 43196U 18015E   24082.40810711  .00050519  00000+0  80562-3 0  9999
2 43196  97.6031 250.1242 0009698 271.0982  88.9160 15.53026984342013
GOMX-4A                 
1 43197U 18015F   24083.21652940  .00067643  00000+0  84371-3 0  9996
2 43197  97.5963 254.9744 0008917 259.5617 100.4634 15.59626017342414
CICERO 10               
1 43690U 18088A   24082.90235193  .00071411  00000+0  91986-3 0  9994
2 43690  85.0155 240.7370 0007499 253.5208 106.5230 15.58745433298680
PROXIMA I               
1 43694U 18088E   24082.82250563  .00148752  00000+0  11959-2 0  9991
2 43694  85.0094 234.5284 0007018 227.8101 132.2572 15.70480080299116
PROXIMA II              
1 43696U 18088G   24082.82601733  .00141702  00000+0  11788-2 0  9990
2 43696  85.0083 234.6646 0006860 225.9789 134.0914 15.69673676299094
SIRION PATHFINDER-2     
1 43759U 18099B   24082.89736530  .00007443  00000+0  57849-3 0  9995
2 43759  97.5430 141.4885 0012230 224.2753 135.7494 15.01525941289557
CORVUS BC4              
1 43767U 18099K   24083.09349205  .00006977  00000+0  55173-3 0  9995
2 43767  97.5237 139.1445 0009962 305.7416  54.2881 15.00903911289478
MOVE-II                 
1 43780U 18099Y   24082.69781003  .00019520  00000+0  11446-2 0  9993
2 43780  97.5320 146.7130 0005988 270.9305  89.1239 15.11792775289846
SPACEBEE-7              
1 43816U 18099BL  24082.13785259  .00020904  00000+0  13362-2 0  9996
2 43816  97.5573 147.0485 0010216 222.0339 138.0107 15.08604340289279
SPACEBEE-6              
1 43818U 18099BN  24082.72425757  .00031575  00000+0  15940-2 0  9997
2 43818  97.5515 151.7368 0009640 225.8453 134.1988 15.16999806289778
SHIELDS 1               
1 43850U 18104B   24082.69079748  .00016922  00000+0  49701-3 0  9993
2 43850  85.0285 341.6997 0013401  45.6613 314.5732 15.34914893292884
ZACUBE-2                
1 43907U 18111AH  24083.06181523  .00273848  00000+0  13823-2 0  9998
2 43907  97.0807 325.6113 0003956 230.5413 129.5506 15.80871255292618
SONATE                  
1 44400U 19038Q   24082.92604742  .00023320  00000+0  80216-3 0  9992
2 44400  97.7110  73.4603 0019319  56.8351 303.4738 15.29901718260877
LUCKY-7                 
1 44406U 19038W   24082.91110995  .00037958  00000+0  10477-2 0  9992
2 44406  97.7035  76.4948 0016608  47.3983 312.8658 15.36845388261085
BEESAT 9                
1 44412U 19038AC  24082.93911798  .00115916  00000+0  14373-2 0  9991
2 44412  97.6857  82.9318 0009638  47.1747 313.0317 15.59600614261246
JAISAT-1                
1 44419U 19038F   24082.94721819  .00107746  00000+0  13735-2 0  9995
2 44419  97.6845  83.9985 0009466  46.9003 313.3043 15.58896841261621
DUCHIFAT-3              
1 44854U 19089C   24083.03985541  .00018492  00000+0  10248-2 0  9994
2 44854  36.9578 210.7431 0008019 101.2855 258.8793 15.13086694235132
M2 PATHFINDER           
1 45727U 20037E   24083.01242222  .00004651  00000+0  41590-3 0  9996
2 45727  97.7711 259.9714 0012086  54.6601 305.5748 14.96314369203053
NETSAT-4                
1 46504U 20068U   24082.82638656  .00015071  00000+0  85890-3 0  9991
2 46504  97.7971  37.8296 0008314 304.8487  55.1960 15.12870778191100
NETSAT-3                
1 46505U 20068V   24082.84822756  .00013146  00000+0  75929-3 0  9993
2 46505  97.7949  37.4596 0007777 316.7595  43.3024 15.12424767191102
NETSAT-1                
1 46506U 20068W   24082.81635501  .00011337  00000+0  67748-3 0  9991
2 46506  97.7970  37.0715 0007070 329.4790  30.6027 15.11235679191079
NETSAT-2                
1 46507U 20068X   24083.10311257  .00013841  00000+0  79133-3 0  9997
2 46507  97.7959  37.7734 0006283 338.0332  22.0628 15.12787143191091
WILDTRACKCUBE-SIMBA     
1 47941U 21022K   24083.19794047  .00016520  00000+0  79936-3 0  9990
2 47941  97.4711 340.8748 0018446  85.8642 274.4700 15.18509682165401
BEESAT-6                
1 47957U 21022AB  24082.70320572  .00086900  00000+0  19518-2 0  9999
2 47957  97.4587 347.5872 0013214  67.9262 292.3388 15.42952355165629
SMOG-1                  
1 47964U 21022AJ  24082.73913390  .00079595  00000+0  17640-2 0  9992
2 47964  97.4736 350.6096 0011483  56.5894 303.6450 15.43404001164814
BCCSAT-1                
1 48041U 21022AK  24082.69847830  .00053065  00000+0  15010-2 0  9992
2 48041  97.4729 347.7959 0010916  58.6189 301.6121 15.36079533164608
BEESAT-5                
1 48083U 21022AM  24081.96225737  .00164896  00000+0  31546-2 0  9990
2 48083  97.4393 347.6235 0012370  66.1548 294.0997 15.47382615164736
BEESAT-7                
1 48084U 21022AN  24082.70264045  .00080120  00000+0  18914-2 0  9990
2 48084  97.4691 347.9040 0012447  64.7528 295.5007 15.41495644164360
BEESAT-8                
1 48085U 21022AP  24081.69439858  .00037511  00000+0  14283-2 0  9995
2 48085  97.4810 343.2531 0016158  78.6900 281.6152 15.26513732164504
LEDSAT                  
1 49069U 21073D   24083.18753512  .00018672  00000+0  83226-3 0  9997
2 49069  97.4461 155.0890 0020137 223.2179 136.7478 15.21286179143363
SITRO-AIS 5 (KATYS)     
1 57176U 23091L   24083.20649229  .00009404  00000+0  63409-3 0  9993
2 57176  97.6252 136.1931 0019454  58.8760 301.4372 15.06713590 40540
SITRO-AIS 6 (CHIRKIN)   
1 57192U 23091AC  24083.12877012  .00009304  00000+0  62635-3 0  9994
2 57192  97.6247 136.1353 0019288  59.1477 301.1645 15.06778325 40530
SITRO-AIS 8 (ANOKHIN)   
1 57193U 23091AD  24083.17781408  .00009820  00000+0  65750-3 0  9997
2 57193  97.6235 136.2180 0018706  59.3920 300.9150 15.06971492 40545
SITRO-AIS 7 (FARTUSHNIY)
1 57194U 23091AE  24083.13146407  .00009436  00000+0  63578-3 0  9997
2 57194  97.6247 136.1269 0019179  59.6847 300.6274 15.06741163 40535
SITRO-AIS 10 (BURDAEV)  
1 57199U 23091AK  24083.18014767  .00010099  00000+0  64769-3 0  9990
2 57199  97.6252 136.8765 0013497  50.2126 310.0289 15.08625397 40586
SITRO-AIS 9 (SHCHUKIN)  
1 57201U 23091AM  24083.17807535  .00010867  00000+0  69655-3 0  9998
2 57201  97.6247 136.8616 0013445  50.0486 310.1921 15.08625773 40581
SITRO-AIS 12 (SMIRENNIY)
1 57204U 23091AQ  24083.15078724  .00011607  00000+0  74020-3 0  9994
2 57204  97.6266 136.9321 0013383  44.9895 315.2416 15.08797263 40585
SITRO-AIS 11 (SHEFFER)  
1 57208U 23091AU  24083.14072725  .00011537  00000+0  73455-3 0  9995
2 57208  97.6264 136.9370 0013315  45.9426 314.2897 15.08857986 40588
SITRO-AIS B             
1 59052U 24039B   24083.16860098  .00021365  00000+0  89846-3 0  9998
2 59052  97.3847  46.2100 0021135 153.1410 207.0926 15.23217167  3487
SITRO-AIS C             
1 59053U 24039C   24083.16856697  .00024028  00000+0  10093-2 0  9995
2 59053  97.3845  46.2089 0021152 153.8366 206.3945 15.23230016  3478
SITRO-AIS 31            
1 59054U 24039D   24083.16741761  .00024018  00000+0  10063-2 0  9997
2 59054  97.3845  46.2103 0020997 153.7914 206.4390 15.23319882  3496
SITRO-AIS 33            
1 59055U 24039E   24083.16600501  .00023493  00000+0  98194-3 0  9992
2 59055  97.3847  46.2133 0020705 154.1667 206.0609 15.23412187  3489
SITRO-AIS F             
1 59056U 24039F   24083.16496653  .00022211  00000+0  92715-3 0  9994
2 59056  97.3847  46.2141 0020531 154.3155 205.9107 15.23470779  3482
SITRO-AIS G             
1 59057U 24039G   24083.16583127  .00024365  00000+0  10180-2 0  9995
2 59057  97.3847  46.2131 0020476 154.4909 205.7343 15.23422038  3483
SITRO-AIS 35            
1 59058U 24039H   24083.16552940  .00023815  00000+0  99426-3 0  9995
2 59058  97.3848  46.2145 0020642 154.3759 205.8506 15.23448441  3485
SITRO-AIS 36            
1 59059U 24039J   24083.16396179  .00021604  00000+0  90030-3 0  9992
2 59059  97.3848  46.2158 0020227 154.2730 205.9518 15.23539233  3481
SITRO-AIS 49            
1 59060U 24039K   24083.16360861  .00022348  00000+0  93046-3 0  9999
2 59060  97.3846  46.2162 0020211 154.2376 205.9872 15.23563269  3484
SITRO-AIS 50            
1 59061U 24039L   24083.16297861  .00023556  00000+0  97863-3 0  9992
2 59061  97.3847  46.2172 0020203 154.1562 206.0689 15.23624835  3489
SITRO-AIS 51            
1 59062U 24039M   24083.16252594  .00023365  00000+0  97022-3 0  9992
2 59062  97.3847  46.2177 0020123 154.0149 206.2103 15.23644521  3483
SITRO-AIS 52            
1 59063U 24039N   24083.16140241  .00023212  00000+0  96148-3 0  9997
2 59063  97.3847  46.2193 0019970 153.7720 206.4533 15.23733067  3484
SITRO-AIS 25            
1 59066U 24039R   24083.19778961  .00008108  00000+0  80007-3 0  9993
2 59066  95.3952  39.2114 0172832 278.6128  79.5543 14.81537625  3376
